LEMUR-2-HUBBLE-4        
1 64565U 25135AP  26200.76347727  .00000354  00000+0  38783-4 0  9999
2 64565  97.7722 314.2938 0003022 151.4800 208.6586 14.93692072 58739
LEMUR-2-SEJONG-2        
1 64586U 25135BL  26200.79375527  .00002460  00000+0  21925-3 0  9993
2 64586  97.7709 315.6002 0004249 196.9042 163.2038 14.96933373 58821
LEMUR-2-HUBBLE-5        
1 64840U 25135BT  26200.77070278  .00000366  00000+0  39504-4 0  9995
2 64840  97.7742 314.9749 0004674 216.8397 143.2502 14.94218974 58777
LEMUR-2-KARENDARRELL    
1 64841U 25135BU  26200.79773443  .00003870  00000+0  31115-3 0  9994
2 64841  97.7722 316.9665 0012824  90.8640 269.4053 15.00536376 58906
LEMUR-2-LUCILLE-ROSE    
1 65403U 25135BV  26200.77123557  .00003234  00000+0  26077-3 0  9997
2 65403  97.7700 316.9745 0015374 175.4293 184.7074 15.00519254 53524
LEMUR-2-AFFIE-WAUWIE    
1 66295U 25248C   26200.68339749  .00012798  00000+0  46425-3 0  9998
2 66295  45.3910 298.7582 0009377 275.3833  84.5986 15.28373565 39568
OTTER SDM               
1 66678U 25276N   26200.63950845  .00002980  00000+0  14120-3 0  9994
2 66678  97.4197 273.5822 0004523 233.4016 126.6803 15.20085065 35347
LEMUR-2-STAS-GORBUK     
1 66686U 25276W   26200.72795431  .00002543  00000+0  12234-3 0  9990
2 66686  97.4230 273.7204 0003909 226.6135 133.4775 15.19683379 35358
LEMUR-2-TEODOR          
1 66768U 25276DG  26200.74173111  .00002795  00000+0  12781-3 0  9994
2 66768  97.4133 274.0115 0002148  84.1917 275.9563 15.21363802 35395
LEMUR-2-LAILA           
1 66776U 25276DQ  26200.77661954  .00002784  00000+0  12648-3 0  9993
2 66776  97.4159 274.1875 0002847  87.8612 272.2950 15.21590757 35407
LEMUR-2-CELIJO-SB-PK    
1 66781U 25276DW  26200.72015075  .00002860  00000+0  23258-3 0  9995
2 66781  97.5183 270.4234 0006748  53.6288 306.5558 15.00311679 27501
LEMUR-2-FINNIAN         
1 66782U 25276DX  26200.75609728  .00001294  00000+0  10689-3 0  9997
2 66782  97.5356 270.7347 0007081 342.5290  17.5690 15.00644953 24884
LEMUR-2-STARLIGHT       
1 66783U 25276DY  26200.74053332  .00003633  00000+0  30086-3 0  9993
2 66783  97.5234 270.2678 0014626  33.6189 326.5960 14.99388782 35078
LEMUR-2-TARTIFLETTE     
1 66784U 25276DZ  26200.73898573  .00003348  00000+0  27785-3 0  9992
2 66784  97.5232 270.2741 0013855  42.2616 317.9673 14.99370705 35073
LEMUR-2-VUKASIN         
1 66785U 25276EA  26200.70570867  .00002194  00000+0  17839-3 0  9990
2 66785  97.5206 270.6077 0002339  39.5355 320.6040 15.00567775 35027
LEMUR-2-HOTSPUR-TOM     
1 66786U 25276EB  26200.73369260  .00002827  00000+0  23595-3 0  9996
2 66786  97.5213 270.2414 0013632  34.0717 326.1379 14.99267468 35004
